CCSDS_OMM_VERS = 2.0
CREATION_DATE  = 
ORIGINATOR     = 

OBJECT_NAME    = ISS (ZARYA)
OBJECT_ID      = 1998-067A
CENTER_NAME    = EARTH
REF_FRAME      = TEME
TIME_SYSTEM    = UTC
MEAN_ELEMENT_THEORY = SGP/SGP4

EPOCH          = 2026-04-02T20:14:17.913696
MEAN_MOTION    = 15.48729122
ECCENTRICITY   = .0006236
INCLINATION    = 51.6328
RA_OF_ASC_NODE = 312.9475
ARG_OF_PERICENTER = 264.7845
MEAN_ANOMALY   = 95.2432

EPHEMERIS_TYPE = 0
CLASSIFICATION_TYPE = U
NORAD_CAT_ID   = 25544
ELEMENT_SET_NO = 999
REV_AT_EPOCH   = 56007
BSTAR          = .22447E-3
MEAN_MOTION_DOT = .11825E-3
MEAN_MOTION_DDOT = 0

CCSDS_OMM_VERS = 2.0
CREATION_DATE  = 
ORIGINATOR     = 

OBJECT_NAME    = POISK
OBJECT_ID      = 2009-060A
CENTER_NAME    = EARTH
REF_FRAME      = TEME
TIME_SYSTEM    = UTC
MEAN_ELEMENT_THEORY = SGP/SGP4

EPOCH          = 2026-04-02T20:14:17.913696
MEAN_MOTION    = 15.48729122
ECCENTRICITY   = .0006236
INCLINATION    = 51.6328
RA_OF_ASC_NODE = 312.9475
ARG_OF_PERICENTER = 264.7845
MEAN_ANOMALY   = 95.2432

EPHEMERIS_TYPE = 0
CLASSIFICATION_TYPE = U
NORAD_CAT_ID   = 36086
ELEMENT_SET_NO = 999
REV_AT_EPOCH   = 55988
BSTAR          = .22447E-3
MEAN_MOTION_DOT = .11825E-3
MEAN_MOTION_DDOT = 0

CCSDS_OMM_VERS = 2.0
CREATION_DATE  = 
ORIGINATOR     = 

OBJECT_NAME    = CSS (TIANHE)
OBJECT_ID      = 2021-035A
CENTER_NAME    = EARTH
REF_FRAME      = TEME
TIME_SYSTEM    = UTC
MEAN_ELEMENT_THEORY = SGP/SGP4

EPOCH          = 2026-04-01T08:38:43.102176
MEAN_MOTION    = 15.61804306
ECCENTRICITY   = .00037219
INCLINATION    = 41.4670
RA_OF_ASC_NODE = 70.0996
ARG_OF_PERICENTER = 85.9086
MEAN_ANOMALY   = 274.2179

EPHEMERIS_TYPE = 0
CLASSIFICATION_TYPE = U
NORAD_CAT_ID   = 48274
ELEMENT_SET_NO = 999
REV_AT_EPOCH   = 28115
BSTAR          = .27286117E-3
MEAN_MOTION_DOT = .24066E-3
MEAN_MOTION_DDOT = 0

CCSDS_OMM_VERS = 2.0
CREATION_DATE  = 
ORIGINATOR     = 

OBJECT_NAME    = ISS (NAUKA)
OBJECT_ID      = 2021-066A
CENTER_NAME    = EARTH
REF_FRAME      = TEME
TIME_SYSTEM    = UTC
MEAN_ELEMENT_THEORY = SGP/SGP4

EPOCH          = 2026-04-02T20:14:17.913696
MEAN_MOTION    = 15.48729122
ECCENTRICITY   = .0006236
INCLINATION    = 51.6328
RA_OF_ASC_NODE = 312.9475
ARG_OF_PERICENTER = 264.7845
MEAN_ANOMALY   = 95.2432

EPHEMERIS_TYPE = 0
CLASSIFICATION_TYPE = U
NORAD_CAT_ID   = 49044
ELEMENT_SET_NO = 999
REV_AT_EPOCH   = 55992
BSTAR          = .22447E-3
MEAN_MOTION_DOT = .11825E-3
MEAN_MOTION_DDOT = 0

CCSDS_OMM_VERS = 2.0
CREATION_DATE  = 
ORIGINATOR     = 

OBJECT_NAME    = FREGAT DEB
OBJECT_ID      = 2011-037PF
CENTER_NAME    = EARTH
REF_FRAME      = TEME
TIME_SYSTEM    = UTC
MEAN_ELEMENT_THEORY = SGP/SGP4

EPOCH          = 2026-04-02T08:54:21.573792
MEAN_MOTION    = 12.40851016
ECCENTRICITY   = .09577212
INCLINATION    = 51.6430
RA_OF_ASC_NODE = 229.6413
ARG_OF_PERICENTER = 113.6985
MEAN_ANOMALY   = 256.7265

EPHEMERIS_TYPE = 0
CLASSIFICATION_TYPE = U
NORAD_CAT_ID   = 49271
ELEMENT_SET_NO = 999
REV_AT_EPOCH   = 21563
BSTAR          = .17436821E-1
MEAN_MOTION_DOT = .12132E-3
MEAN_MOTION_DDOT = 0

CCSDS_OMM_VERS = 2.0
CREATION_DATE  = 
ORIGINATOR     = 

OBJECT_NAME    = CSS (WENTIAN)
OBJECT_ID      = 2022-085A
CENTER_NAME    = EARTH
REF_FRAME      = TEME
TIME_SYSTEM    = UTC
MEAN_ELEMENT_THEORY = SGP/SGP4

EPOCH          = 2026-04-01T08:38:43.102176
MEAN_MOTION    = 15.61804306
ECCENTRICITY   = .00037219
INCLINATION    = 41.4670
RA_OF_ASC_NODE = 70.0996
ARG_OF_PERICENTER = 85.9086
MEAN_ANOMALY   = 274.2179

EPHEMERIS_TYPE = 0
CLASSIFICATION_TYPE = U
NORAD_CAT_ID   = 53239
ELEMENT_SET_NO = 999
REV_AT_EPOCH   = 28115
BSTAR          = .27286117E-3
MEAN_MOTION_DOT = .24066E-3
MEAN_MOTION_DDOT = 0

CCSDS_OMM_VERS = 2.0
CREATION_DATE  = 
ORIGINATOR     = 

OBJECT_NAME    = CSS (MENGTIAN)
OBJECT_ID      = 2022-143A
CENTER_NAME    = EARTH
REF_FRAME      = TEME
TIME_SYSTEM    = UTC
MEAN_ELEMENT_THEORY = SGP/SGP4

EPOCH          = 2026-04-01T08:38:43.102176
MEAN_MOTION    = 15.61804306
ECCENTRICITY   = .00037219
INCLINATION    = 41.4670
RA_OF_ASC_NODE = 70.0996
ARG_OF_PERICENTER = 85.9086
MEAN_ANOMALY   = 274.2179

EPHEMERIS_TYPE = 0
CLASSIFICATION_TYPE = U
NORAD_CAT_ID   = 54216
ELEMENT_SET_NO = 999
REV_AT_EPOCH   = 28115
BSTAR          = .27286117E-3
MEAN_MOTION_DOT = .24066E-3
MEAN_MOTION_DDOT = 0

CCSDS_OMM_VERS = 2.0
CREATION_DATE  = 
ORIGINATOR     = 

OBJECT_NAME    = TIANZHOU-9
OBJECT_ID      = 2025-149A
CENTER_NAME    = EARTH
REF_FRAME      = TEME
TIME_SYSTEM    = UTC
MEAN_ELEMENT_THEORY = SGP/SGP4

EPOCH          = 2026-04-01T08:38:43.102176
MEAN_MOTION    = 15.61804306
ECCENTRICITY   = .00037219
INCLINATION    = 41.4670
RA_OF_ASC_NODE = 70.0996
ARG_OF_PERICENTER = 85.9086
MEAN_ANOMALY   = 274.2179

EPHEMERIS_TYPE = 0
CLASSIFICATION_TYPE = U
NORAD_CAT_ID   = 64786
ELEMENT_SET_NO = 999
REV_AT_EPOCH   = 28115
BSTAR          = .27286117E-3
MEAN_MOTION_DOT = .24066E-3
MEAN_MOTION_DDOT = 0

CCSDS_OMM_VERS = 2.0
CREATION_DATE  = 
ORIGINATOR     = 

OBJECT_NAME    = PROGRESS-MS 32
OBJECT_ID      = 2025-204A
CENTER_NAME    = EARTH
REF_FRAME      = TEME
TIME_SYSTEM    = UTC
MEAN_ELEMENT_THEORY = SGP/SGP4

EPOCH          = 2026-04-02T12:29:42.408672
MEAN_MOTION    = 15.48719262
ECCENTRICITY   = .00062399
INCLINATION    = 51.6331
RA_OF_ASC_NODE = 314.5431
ARG_OF_PERICENTER = 263.5420
MEAN_ANOMALY   = 96.4858

EPHEMERIS_TYPE = 0
CLASSIFICATION_TYPE = U
NORAD_CAT_ID   = 65586
ELEMENT_SET_NO = 999
REV_AT_EPOCH   = 55450
BSTAR          = .1798213E-3
MEAN_MOTION_DOT = .9376E-4
MEAN_MOTION_DDOT = 0

CCSDS_OMM_VERS = 2.0
CREATION_DATE  = 
ORIGINATOR     = 

OBJECT_NAME    = YOTSUBA-KULOVER
OBJECT_ID      = 1998-067XN
CENTER_NAME    = EARTH
REF_FRAME      = TEME
TIME_SYSTEM    = UTC
MEAN_ELEMENT_THEORY = SGP/SGP4

EPOCH          = 2026-04-02T13:40:12.005760
MEAN_MOTION    = 15.96044497
ECCENTRICITY   = .00073388
INCLINATION    = 51.6153
RA_OF_ASC_NODE = 292.2256
ARG_OF_PERICENTER = 253.9638
MEAN_ANOMALY   = 106.0562

EPHEMERIS_TYPE = 0
CLASSIFICATION_TYPE = U
NORAD_CAT_ID   = 65941
ELEMENT_SET_NO = 999
REV_AT_EPOCH   = 2729
BSTAR          = .13818341E-2
MEAN_MOTION_DOT = .581179E-2
MEAN_MOTION_DDOT = .15193849E-3

CCSDS_OMM_VERS = 2.0
CREATION_DATE  = 
ORIGINATOR     = 

OBJECT_NAME    = BOTAN
OBJECT_ID      = 1998-067XQ
CENTER_NAME    = EARTH
REF_FRAME      = TEME
TIME_SYSTEM    = UTC
MEAN_ELEMENT_THEORY = SGP/SGP4

EPOCH          = 2026-04-02T14:01:07.378752
MEAN_MOTION    = 15.94753553
ECCENTRICITY   = .00073354
INCLINATION    = 51.6177
RA_OF_ASC_NODE = 292.3509
ARG_OF_PERICENTER = 248.5782
MEAN_ANOMALY   = 111.4444

EPHEMERIS_TYPE = 0
CLASSIFICATION_TYPE = U
NORAD_CAT_ID   = 65943
ELEMENT_SET_NO = 999
REV_AT_EPOCH   = 2729
BSTAR          = .1362905E-2
MEAN_MOTION_DOT = .534399E-2
MEAN_MOTION_DDOT = .12700727E-3

CCSDS_OMM_VERS = 2.0
CREATION_DATE  = 
ORIGINATOR     = 

OBJECT_NAME    = HRC MONOBLOCK CAMERA
OBJECT_ID      = 1998-067XR
CENTER_NAME    = EARTH
REF_FRAME      = TEME
TIME_SYSTEM    = UTC
MEAN_ELEMENT_THEORY = SGP/SGP4

EPOCH          = 2026-04-02T20:39:20.151360
MEAN_MOTION    = 15.64898008
ECCENTRICITY   = .0003834
INCLINATION    = 51.6271
RA_OF_ASC_NODE = 303.3082
ARG_OF_PERICENTER = 212.1629
MEAN_ANOMALY   = 147.9133

EPHEMERIS_TYPE = 0
CLASSIFICATION_TYPE = U
NORAD_CAT_ID   = 66052
ELEMENT_SET_NO = 999
REV_AT_EPOCH   = 2617
BSTAR          = .89054E-3
MEAN_MOTION_DOT = .89308E-3
MEAN_MOTION_DDOT = 0

